start=new Date('2021-10-16T00:00:00.000Z').valueOf();
sats=[{"TLE_LINE1":"1 48026U 21024BB  21288.44356708 -.00002258  00000-0 -13286-3 0  9999","DECAY_DATE":null,"OBJECT_NAME":"STARLINK-2278","REF_FRAME":"TEME","COUNTRY_CODE":"US","SEMIMAJOR_AXIS":"6925.428","OBJECT_TYPE":"PAYLOAD","ARG_OF_PERICENTER":"96.7096","TIME_SYSTEM":"UTC","RA_OF_ASC_NODE":"347.5239","MEAN_MOTION_DDOT":"0.0000000000000","INCLINATION":"53.0183","PERIOD":"95.594","LAUNCH_DATE":"2021-03-24","GP_ID":"187281124","REV_AT_EPOCH":"3240","MEAN_ELEMENT_THEORY":"SGP4","MEAN_MOTION_DOT":"-0.00002258","OBJECT_ID":"2021-024BB","ECCENTRICITY":"0.00011340","MEAN_ANOMALY":"263.4021","CENTER_NAME":"EARTH","MEAN_MOTION":"15.06374110","RCS_SIZE":"LARGE","TLE_LINE2":"2 48026  53.0183 347.5239 0001134  96.7096 263.4021 15.06374110 32406","CLASSIFICATION_TYPE":"U","FILE":"3165217","SITE":"AFETR","EPOCH":"2021-10-15T10:38:44.195712","PERIAPSIS":"546.508","NORAD_CAT_ID":"48026","ELEMENT_SET_NO":"999","BSTAR":"-0.00013286000000","APOAPSIS":"548.078","EPHEMERIS_TYPE":"0"},{"TLE_LINE2":"2 48027  53.0557 322.2143 0001412  79.6397 280.4751 15.06381481 32755","CLASSIFICATION_TYPE":"U","RCS_SIZE":"LARGE","MEAN_MOTION":"15.06381481","CENTER_NAME":"EARTH","MEAN_ANOMALY":"280.4751","ECCENTRICITY":"0.00014120","OBJECT_ID":"2021-024BC","EPHEMERIS_TYPE":"0","APOAPSIS":"548.248","BSTAR":"-0.00008915700000","NORAD_CAT_ID":"48027","PERIAPSIS":"546.292","ELEMENT_SET_NO":"999","EPOCH":"2021-10-15T11:16:34.254624","SITE":"AFETR","FILE":"3165217","GP_ID":"187279872","MEAN_MOTION_DOT":"-0.00001608","MEAN_ELEMENT_THEORY":"SGP4","REV_AT_EPOCH":"3275","PERIOD":"95.593","LAUNCH_DATE":"2021-03-24","OBJECT_TYPE":"PAYLOAD","SEMIMAJOR_AXIS":"6925.405","COUNTRY_CODE":"US","REF_FRAME":"TEME","OBJECT_NAME":"STARLINK-2300","TLE_LINE1":"1 48027U 21024BC  21288.46984091 -.00001608  00000-0 -89157-4 0  9993","DECAY_DATE":null,"MEAN_MOTION_DDOT":"0.0000000000000","INCLINATION":"53.0557","RA_OF_ASC_NODE":"322.2143","TIME_SYSTEM":"UTC","ARG_OF_PERICENTER":"79.6397"},{"REV_AT_EPOCH":"359","MEAN_ELEMENT_THEORY":"SGP4","MEAN_MOTION_DOT":"0.00001582","GP_ID":"187279623","SITE":"AFETR","FILE":"3165217","EPOCH":"2021-10-16T00:00:02.000160","BSTAR":"0.00012510000000","NORAD_CAT_ID":"48028","PERIAPSIS":"545.662","ELEMENT_SET_NO":"999","EPHEMERIS_TYPE":"0","APOAPSIS":"548.740","OBJECT_ID":"2021-024BD","ECCENTRICITY":"0.00022220","MEAN_ANOMALY":"238.4589","MEAN_MOTION":"15.06404055","CENTER_NAME":"EARTH","CLASSIFICATION_TYPE":"U","TLE_LINE2":"2 48028  53.0522 274.8230 0002222  51.1923 238.4589 15.06404055  3592","RCS_SIZE":"LARGE","TIME_SYSTEM":"UTC","ARG_OF_PERICENTER":"51.1923","RA_OF_ASC_NODE":"274.8230","MEAN_MOTION_DDOT":"0.0000000000000","INCLINATION":"53.0522","REF_FRAME":"TEME","TLE_LINE1":"1 48028U 21024BD  21289.00002315  .00001582  00000-0  12510-3 0  9992","OBJECT_NAME":"STARLINK-2264","DECAY_DATE":null,"COUNTRY_CODE":"US","SEMIMAJOR_AXIS":"6925.336","OBJECT_TYPE":"PAYLOAD","LAUNCH_DATE":"2021-03-24","PERIOD":"95.592"},{"TLE_LINE2":"2 48029  53.0572 341.1576 0001223  92.2681 267.8448 15.06392482 32576","CLASSIFICATION_TYPE":"U","RCS_SIZE":"LARGE","MEAN_MOTION":"15.06392482","CENTER_NAME":"EARTH","MEAN_ANOMALY":"267.8448","ECCENTRICITY":"0.00012230","OBJECT_ID":"2021-024BE","EPHEMERIS_TYPE":"0","APOAPSIS":"548.084","BSTAR":"0.00006421900000","NORAD_CAT_ID":"48029","PERIAPSIS":"546.390","ELEMENT_SET_NO":"999","EPOCH":"2021-10-15T16:58:53.524416","SITE":"AFETR","FILE":"3165217","GP_ID":"187280874","MEAN_MOTION_DOT":"0.00000675","MEAN_ELEMENT_THEORY":"SGP4","REV_AT_EPOCH":"3257","PERIOD":"95.593","LAUNCH_DATE":"2021-03-24","OBJECT_TYPE":"PAYLOAD","SEMIMAJOR_AXIS":"6925.372","COUNTRY_CODE":"US","REF_FRAME":"TEME","TLE_LINE1":"1 48029U 21024BE  21288.70756394  .00000675  00000-0  64219-4 0  9998","DECAY_DATE":null,"OBJECT_NAME":"STARLINK-2299","MEAN_MOTION_DDOT":"0.0000000000000","INCLINATION":"53.0572","RA_OF_ASC_NODE":"341.1576","TIME_SYSTEM":"UTC","ARG_OF_PERICENTER":"92.2681"},{"RA_OF_ASC_NODE":"347.2087","ARG_OF_PERICENTER":"90.7214","TIME_SYSTEM":"UTC","INCLINATION":"53.0557","MEAN_MOTION_DDOT":"0.0000000000000","COUNTRY_CODE":"US","TLE_LINE1":"1 48030U 21024BF  21288.46936432 -.00001376  00000-0 -73537-4 0  9990","OBJECT_NAME":"STARLINK-2268","DECAY_DATE":null,"REF_FRAME":"TEME","OBJECT_TYPE":"PAYLOAD","SEMIMAJOR_AXIS":"6925.369","LAUNCH_DATE":"2021-03-24","PERIOD":"95.593","REV_AT_EPOCH":"3240","MEAN_MOTION_DOT":"-0.00001376","MEAN_ELEMENT_THEORY":"SGP4","GP_ID":"187280625","EPOCH":"2021-10-15T11:15:53.077248","FILE":"3165217","SITE":"AFETR","APOAPSIS":"548.015","EPHEMERIS_TYPE":"0","NORAD_CAT_ID":"48030","PERIAPSIS":"546.453","ELEMENT_SET_NO":"999","BSTAR":"-0.00007353700000","MEAN_ANOMALY":"269.3904","ECCENTRICITY":"0.00011280","OBJECT_ID":"2021-024BF","RCS_SIZE":"LARGE","TLE_LINE2":"2 48030  53.0557 347.2087 0001128  90.7214 269.3904 15.06393255 32409","CLASSIFICATION_TYPE":"U","CENTER_NAME":"EARTH","MEAN_MOTION":"15.06393255"},{"NORAD_CAT_ID":"48031","PERIAPSIS":"346.723","ELEMENT_SET_NO":"999","BSTAR":"-0.00054805000000","APOAPSIS":"352.378","EPHEMERIS_TYPE":"0","FILE":"3165217","SITE":"AFETR","EPOCH":"2021-10-16T00:00:02.000160","CENTER_NAME":"EARTH","MEAN_MOTION":"15.73273644","RCS_SIZE":"LARGE","TLE_LINE2":"2 48031  53.0430 262.4937 0004203 322.6738  52.1225 15.73273644  3671","CLASSIFICATION_TYPE":"U","OBJECT_ID":"2021-024BG","ECCENTRICITY":"0.00042030","MEAN_ANOMALY":"52.1225","MEAN_ELEMENT_THEORY":"SGP4","MEAN_MOTION_DOT":"-0.00077140","REV_AT_EPOCH":"367","GP_ID":"187279373","LAUNCH_DATE":"2021-03-24","PERIOD":"91.529","MEAN_MOTION_DDOT":"0.0000000000000","INCLINATION":"53.0430","ARG_OF_PERICENTER":"322.6738","TIME_SYSTEM":"UTC","RA_OF_ASC_NODE":"262.4937","SEMIMAJOR_AXIS":"6727.685","OBJECT_TYPE":"PAYLOAD","TLE_LINE1":"1 48031U 21024BG  21289.00002315 -.00077140  00000-0 -54805-3 0  9994","OBJECT_NAME":"STARLINK-2267","DECAY_DATE":null,"REF_FRAME":"TEME","COUNTRY_CODE":"US"},{"GP_ID":"187280123","REV_AT_EPOCH":"367","MEAN_ELEMENT_THEORY":"SGP4","MEAN_MOTION_DOT":"-0.00129401","OBJECT_ID":"2021-024BH","ECCENTRICITY":"0.00047160","MEAN_ANOMALY":"65.9549","CENTER_NAME":"EARTH","MEAN_MOTION":"15.73318643","RCS_SIZE":"LARGE","TLE_LINE2":"2 48032  53.0430 262.4899 0004716 309.4291  65.9549 15.73318643  3675","CLASSIFICATION_TYPE":"U","FILE":"3165217","SITE":"AFETR","EPOCH":"2021-10-16T00:00:02.000160","PERIAPSIS":"346.249","NORAD_CAT_ID":"48032","ELEMENT_SET_NO":"999","BSTAR":"-0.00092610000000","APOAPSIS":"352.595","EPHEMERIS_TYPE":"0","DECAY_DATE":null,"TLE_LINE1":"1 48032U 21024BH  21289.00002315 -.00129401  00000-0 -92610-3 0  9999","OBJECT_NAME":"STARLINK-2297","REF_FRAME":"TEME","COUNTRY_CODE":"US","SEMIMAJOR_AXIS":"6727.557","OBJECT_TYPE":"PAYLOAD","ARG_OF_PERICENTER":"309.4291","TIME_SYSTEM":"UTC","RA_OF_ASC_NODE":"262.4899","MEAN_MOTION_DDOT":"0.0000000000000","INCLINATION":"53.0430","PERIOD":"91.526","LAUNCH_DATE":"2021-03-24"},{"TIME_SYSTEM":"UTC","ARG_OF_PERICENTER":"90.3241","RA_OF_ASC_NODE":"341.7628","INCLINATION":"53.0547","MEAN_MOTION_DDOT":"0.0000000000000","REF_FRAME":"TEME","TLE_LINE1":"1 48033U 21024BJ  21288.57392978 -.00001917  00000-0 -10990-3 0  9990","DECAY_DATE":null,"OBJECT_NAME":"STARLINK-2286","COUNTRY_CODE":"US","SEMIMAJOR_AXIS":"6925.395","OBJECT_TYPE":"PAYLOAD","LAUNCH_DATE":"2021-03-24","PERIOD":"95.593","REV_AT_EPOCH":"3255","MEAN_ELEMENT_THEORY":"SGP4","MEAN_MOTION_DOT":"-0.00001917","GP_ID":"187280375","SITE":"AFETR","FILE":"3165217","EPOCH":"2021-10-15T13:46:27.532992","BSTAR":"-0.00010990000000","ELEMENT_SET_NO":"999","PERIAPSIS":"546.429","NORAD_CAT_ID":"48033","EPHEMERIS_TYPE":"0","APOAPSIS":"548.091","OBJECT_ID":"2021-024BJ","MEAN_ANOMALY":"269.7886","ECCENTRICITY":"0.00012000","MEAN_MOTION":"15.06384906","CENTER_NAME":"EARTH","TLE_LINE2":"2 48033  53.0547 341.7628 0001200  90.3241 269.7886 15.06384906 32550","CLASSIFICATION_TYPE":"U","RCS_SIZE":"LARGE"},{"PERIOD":"95.593","LAUNCH_DATE":"2021-03-24","COUNTRY_CODE":"US","OBJECT_NAME":"STARLINK-2288","TLE_LINE1":"1 48034U 21024BK  21288.44955342 -.00001422  00000-0 -76625-4 0  9996","DECAY_DATE":null,"REF_FRAME":"TEME","OBJECT_TYPE":"PAYLOAD","SEMIMAJOR_AXIS":"6925.379","RA_OF_ASC_NODE":"342.3106","ARG_OF_PERICENTER":"88.6563","TIME_SYSTEM":"UTC","INCLINATION":"53.0570","MEAN_MOTION_DDOT":"0.0000000000000","MEAN_ANOMALY":"271.4550","ECCENTRICITY":"0.00010860","OBJECT_ID":"2021-024BK","RCS_SIZE":"LARGE","TLE_LINE2":"2 48034  53.0570 342.3106 0001086  88.6563 271.4550 15.06390072 32531","CLASSIFICATION_TYPE":"U","CENTER_NAME":"EARTH","MEAN_MOTION":"15.06390072","EPOCH":"2021-10-15T10:47:21.415488","FILE":"3165217","SITE":"AFETR","APOAPSIS":"547.996","EPHEMERIS_TYPE":"0","PERIAPSIS":"546.492","ELEMENT_SET_NO":"999","NORAD_CAT_ID":"48034","BSTAR":"-0.00007662500000","GP_ID":"187281125","REV_AT_EPOCH":"3253","MEAN_MOTION_DOT":"-0.00001422","MEAN_ELEMENT_THEORY":"SGP4"},{"PERIOD":"91.530","LAUNCH_DATE":"2021-03-24","COUNTRY_CODE":"US","REF_FRAME":"TEME","DECAY_DATE":null,"TLE_LINE1":"1 48035U 21024BL  21289.00002315 -.00044880  00000-0 -31606-3 0  9997","OBJECT_NAME":"STARLINK-2287","OBJECT_TYPE":"PAYLOAD","SEMIMAJOR_AXIS":"6727.757","RA_OF_ASC_NODE":"262.4914","TIME_SYSTEM":"UTC","ARG_OF_PERICENTER":"323.3822","MEAN_MOTION_DDOT":"0.0000000000000","INCLINATION":"53.0432","MEAN_ANOMALY":"53.9403","ECCENTRICITY":"0.00048220","OBJECT_ID":"2021-024BL","TLE_LINE2":"2 48035  53.0432 262.4914 0004822 323.3822  53.9403 15.73248419  3681","CLASSIFICATION_TYPE":"U","RCS_SIZE":"MEDIUM","MEAN_MOTION":"15.73248419","CENTER_NAME":"EARTH","EPOCH":"2021-10-16T00:00:02.000160","SITE":"AFETR","FILE":"3165217","EPHEMERIS_TYPE":"0","APOAPSIS":"352.866","BSTAR":"-0.00031606000000","PERIAPSIS":"346.378","NORAD_CAT_ID":"48035","ELEMENT_SET_NO":"999","GP_ID":"187279873","REV_AT_EPOCH":"368","MEAN_MOTION_DOT":"-0.00044880","MEAN_ELEMENT_THEORY":"SGP4"}];
